#aV2019  9 17  0  0  0.00000000     288 DD+AD WGS84 FIT  NGA
## 2071 172800.00000000   300.00000000 58743 0.0000000000000
+   31     1  2  3  5  6  7  8  9 10 11 12 13 14 15 16 17 18
+         19 20 21 22 23 24 25 26 27 28 29 30 31 32  0  0  0
+          0  0  0  0  0  0  0  0  0  0  0  0  0  0  0  0  0
+          0  0  0  0  0  0  0  0  0  0  0  0  0  0  0  0  0
+          0  0  0  0  0  0  0  0  0  0  0  0  0  0  0  0  0
++         2  2  2  2  2  2  2  2  2  2  2  2  2  2  2  2  2
++         2  2  2  2  2  2  2  2  2  2  2  2  2  2  0  0  0
++         0  0  0  0  0  0  0  0  0  0  0  0  0  0  0  0  0
++         0  0  0  0  0  0  0  0  0  0  0  0  0  0  0  0  0
++         0  0  0  0  0  0  0  0  0  0  0  0  0  0  0  0  0
%c cc cc ccc ccc cccc cccc cccc cccc ccccc ccccc ccccc ccccc
%c cc cc ccc ccc cccc cccc cccc cccc ccccc ccccc ccccc ccccc
%f  0.0000000  0.000000000  0.00000000000  0.000000000000000
%f  0.0000000  0.000000000  0.00000000000  0.000000000000000
%i    0    0    0    0      0      0      0      0         0
%i    0    0    0    0      0      0      0      0         0
/*      NGA, ST. LOUIS,MO.                                  
/*   EPHEMERIS COMPUTED FROM 2 DAYS OF DATA                 
/*   EPOCHA v5 SMOOTHER                                     
/*   G1762 IERS2010 SATAF SATAPC                            
*  2019  9 17 21 45  0.00000000
P  1 -13744.808155  18807.440548  12254.474494   -132.192603                    
V  1   2103.678242 -15988.163896  26769.739519     -0.126182                    
P  2  14911.396794   2035.347619 -21267.334782   -307.217243                    
V  2  -5395.602542  27987.072261  -1202.475604     -0.081229                    
P  3 -20024.165926  13369.785911 -11168.232885    -12.069901                    
V  3 -14266.235342   1323.123272  27383.619570     -0.040688                    
P  5  25456.886624  -1692.385301  -7888.061289     -1.501676                    
V  5  -8605.610831   5418.576406 -29243.204775     -0.003115                    
P  6   8030.393765  17587.697717 -18158.110951    -60.786637                    
V  6  -7223.325921  21991.942754  18092.555099     -0.124971                    
P  7  -5492.721995  25631.127102   2377.820054   -108.483267                    
V  7  -4017.397921   1699.801590 -31736.941519     -0.079345                    
P  8 -17207.790537   2522.748655  20165.503035     -6.809989                    
V  8 -17630.522477 -18369.254489 -12563.599234     -0.013519                    
P  9    871.944802  19124.668913 -18451.609119    -33.811009                    
V  9 -17876.508923 -15129.248576 -16573.690446     -0.095775                    
P 10  -8469.792557 -13198.537265  21523.128550    -57.834692                    
V 10  26107.711294  -7444.299658   5515.653612     -0.154010                    
P 11 -10605.783749  16569.099246  17451.008810   -504.158806                    
V 11  -6702.284836 -22408.442338  16410.883855      0.109319                    
P 12  23179.463961 -10058.740974  -8120.539607    202.999203                    
V 12  10257.547408    136.166968  30052.354198     -0.037996                    
P 13  19876.518156   8123.109614  15561.225908    -43.784690                    
V 13  10806.629535  16834.879372 -22364.091447      0.020968                    
P 14 -18849.843045 -18490.998630  -3350.893610    -60.797111                    
V 14   -981.554324  -5252.552412  31261.162434      0.020174                    
P 15  17006.108993  -5003.226154  19601.801335   -286.237257                    
V 15  18893.744775  17204.746101 -11442.055760      0.027567                    
P 16 -25178.440516  -1773.570373  -9134.444960    -75.046901                    
V 16  10733.850280  -3495.228909 -29100.926996     -0.034843                    
P 17  14422.082653  21731.042644   5658.293855    127.472607                    
V 17  -5809.182442  -3680.700949  31156.044188      0.072132                    
P 18 -15348.830853  11473.120124  17841.546574     86.482803                    
V 18   3143.084656 -23601.422903  17494.790276      0.028962                    
P 19  17771.204238  19639.690206  -2023.372932   -265.875194                    
V 19   -262.792874   3053.830605  32114.376524      0.051882                    
P 20   1808.528014 -16959.207532  20216.326610    526.906608                    
V 20  24610.725371  -8657.094317  -9591.861014      0.001455                    
P 21    240.628973 -25947.460247   6891.196582   -117.139043                    
V 21   4211.840211  -7000.223155 -29781.308920      0.064471                    
P 22 -23849.686411  11017.410043  -3325.366948   -755.820938                    
V 22  -5556.318420  -2180.649898  30693.034947     -0.037349                    
P 23 -10555.478013  11239.444453 -21281.353550   -166.324727                    
V 23 -20278.228271 -19167.725678   -449.728811      0.020687                    
P 24  14229.505989 -17008.454127  14199.862291     -2.287854                    
V 24   -949.484110  18711.051801  23440.878137     -0.005069                    
P 25  11370.246260 -15872.699669 -18099.406673    -12.555868                    
V 25  22274.069123  -4295.980874  18217.280205     -0.014329                    
P 26 -19348.140244  -6895.006023 -16955.106602     41.303976                    
V 26  20039.757604  -7893.799403 -19491.354198      0.088003                    
P 27 -21520.211133  -9733.961177  12332.464056    -58.892277                    
V 27  -9937.731034 -12266.390084 -26484.517673     -0.122407                    
P 28   7495.907325  13711.288161  22071.662195    761.896399                    
V 28 -26096.436234   4877.005633   6101.649372     -0.011142                    
P 29   2298.786208 -17417.873856 -19946.057481     95.126188                    
V 29  17259.902786  18371.607546 -14100.665482     -0.102464                    
P 30   2197.503842  23321.823339  12364.169625    -42.842123                    
V 30  -7531.779988  14170.798722 -25653.632988     -0.079526                    
P 31  -9354.537278 -15655.704490 -19155.470621      9.696239                    
V 31   8516.274956 -22989.627544  15077.953693     -0.025670                    
P 32 -15695.507667 -20830.172885   5424.156639     60.505405                    
V 32   6751.552980   2819.971859  30595.157645      0.136259                    
EOF
